SENTINEL-3A             
1 41335U 16011A   26190.79838541  .00000039  00000+0  34352-4 0  9990
2 41335  98.6239 257.8562 0001399  91.8963 268.2377 14.26738793541283
SENTINEL-3B             
1 43437U 18039A   26190.14034432  .00000049  00000+0  38281-4 0  9999
2 43437  98.6239 257.3566 0001006 120.1387 239.9893 14.26740920427251
